[{"OBJECT_NAME":"STARLINK-1407","OBJECT_ID":"2020-035AY","EPOCH":"2026-03-09T21:23:00.001536","MEAN_MOTION":15.59976169,"ECCENTRICITY":0.00103838,"INCLINATION":53.0348,"RA_OF_ASC_NODE":314.7811,"ARG_OF_PERICENTER":106.6316,"MEAN_ANOMALY":253.5837,"EPHEMERIS_TYPE":0,"CLASSIFICATION_TYPE":"U","NORAD_CAT_ID":45703,"ELEMENT_SET_NO":999,"REV_AT_EPOCH":32032,"BSTAR":0.0017348745,"MEAN_MOTION_DOT":0.00145077,"MEAN_MOTION_DDOT":0},{"OBJECT_NAME":"STARLINK-36404","OBJECT_ID":"2026-022S","EPOCH":"2026-03-09T22:00:01.999584","MEAN_MOTION":15.63480189,"ECCENTRICITY":0.00017208,"INCLINATION":97.2848,"RA_OF_ASC_NODE":102.9106,"ARG_OF_PERICENTER":71.412,"MEAN_ANOMALY":339.7208,"EPHEMERIS_TYPE":0,"CLASSIFICATION_TYPE":"U","NORAD_CAT_ID":67664,"ELEMENT_SET_NO":999,"REV_AT_EPOCH":608,"BSTAR":-0.023644259,"MEAN_MOTION_DOT":-0.01928389,"MEAN_MOTION_DDOT":0}]
